{
  "norad_id": 36516,
  "name": "SES-1",
  "history": [
    {
      "epoch": "2026-03-28T08:02:38.698368Z",
      "apogee_km": 35798.34661274651,
      "perigee_km": 35776.063915973486,
      "latitude_deg": 0.011412652844355567,
      "longitude_deg": -100.98045860415033,
      "height_km": 35797.16512399131,
      "semi_major_axis_km": 42165.34226436,
      "eccentricity": 0.00026423,
      "inclination_deg": 0.0127,
      "raan_deg": 190.2009,
      "arg_perigee_deg": 174.6288,
      "mean_anomaly_deg": 200.5955,
      "mean_motion_rev_day": 1.00269608
    },
    {
      "epoch": "2026-03-29T05:17:34.097856Z",
      "apogee_km": 35798.09617201556,
      "perigee_km": 35775.951029668,
      "latitude_deg": -0.012899935429697565,
      "longitude_deg": -100.95636756895583,
      "height_km": 35796.89127032176,
      "semi_major_axis_km": 42165.16060084179,
      "eccentricity": 0.0002626,
      "inclination_deg": 0.013,
      "raan_deg": 187.2467,
      "arg_perigee_deg": 179.0193,
      "mean_anomaly_deg": 158.7653,
      "mean_motion_rev_day": 1.00270256
    }
  ]
}